273P/Pons-Gambart,e,136.7880,320.4009,20.3204,31.78309,0.0055006,0.97407651,0.0000,12/17.7186/2012,2000,g 11.5,4.0
# From MPC 88332
274P/Tombaugh-Tenagra,e,15.8176,81.3382,38.4974,4.371982,0.1078168,0.43890322,313.3585,01/31.0/2021,2000,g 13.0,4.0
# From MPC 81862
275P/Hermann,e,21.2765,348.7574,174.0810,5.772291,0.0710693,0.71241103,210.5781,01/31.0/2021,2000,g 17.0,4.0
# From MPEC 2020-K19
276P/Vorobjov,e,14.8134,211.4127,199.7988,5.315524,0.0804239,0.26720151,246.1677,01/31.0/2021,2000,g 11.5,4.0
# From MPEC 2021-BE3
277P/LINEAR,e,16.7789,276.3448,152.3172,3.852437,0.1303469,0.50563989,4.1486,01/31.0/2021,2000,g 14.0,4.0
# From MPEC 2020-W26
278P/McNaught,e,6.6851,15.4310,238.0989,3.695890,0.1387157,0.43533247,19.5496,01/31.0/2021,2000,g 14.0,4.0
# From MPC100285
279P/La Sagra,e,5.0523,346.2308,5.7736,3.574768,0.1458251,0.39833329,242.0797,01/31.0/2021,2000,g 14.0,4.0
# From MPC 89013
280P/Larsen,e,11.7753,131.3929,104.8010,4.529215,0.1022515,0.41778148,266.3892,01/31.0/2021,2000,g 12.5,4.0
# From MPC 83145
281P/MOSS,e,4.7196,87.1751,26.7933,4.870799,0.0916862,0.17173304,292.8126,01/31.0/2021,2000,g 11.0,4.0
# From MPC xxxxx
282P/,e,5.8109,9.2947,217.5889,4.243234,0.1127609,0.18904130,329.9658,01/31.0/2021,2000,g 13.5,2.0
# From MPEC 2021-BE3
283P/Spacewatch,e,14.4543,161.1303,22.2590,4.139681,0.1170183,0.48496578,334.2516,01/31.0/2021,2000,g 16.0,2.0
# From MPEC 2020-K19
284P/McNaught,e,11.8597,144.2664,202.5556,3.678584,0.1396957,0.37611612,328.5640,01/31.0/2021,2000,g 13.0,4.0
# From MPC 85339
285P/LINEAR,e,25.0339,185.4957,178.4111,4.508505,0.1029568,0.61827873,286.7437,01/31.0/2021,2000,g 15.0,4.0
# From MPC 90771
286P/Christensen,e,17.0449,283.9613,24.8066,4.109870,0.1182938,0.42533292,304.8104,01/31.0/2021,2000,g 14.0,4.0
# From MPC 96868
287P/Christensen,e,16.3198,139.0442,188.8916,4.166387,0.1158950,0.27082078,257.5336,01/31.0/2021,2000,g 13.5,4.0
# From MPC xxxxx
288P/,e,3.2399,83.1889,280.6197,3.048710,0.1851526,0.20138235,286.6209,01/31.0/2021,2000,g 16.0,2.0
# From MPC118844
289P/Blanpain,e,5.8943,68.8866,9.8745,3.047308,0.1852804,0.68540000,75.4140,01/31.0/2021,2000,g  2.5,4.0
# From MPC 95214
290P/Jager,e,20.2388,302.6844,181.9787,6.196425,0.0638987,0.63262056,162.4812,01/31.0/2021,2000,g 10.5,4.0
# From MPC 89314
291P/NEAT,e,6.3137,238.1164,173.8631,4.518892,0.1026021,0.43578671,275.3301,01/31.0/2021,2000,g 13.0,4.0
# From MPC115887
292P/Li,e,24.2573,90.9888,319.4553,6.108352,0.0652857,0.58804483,166.9927,01/31.0/2021,2000,g 12.5,4.0
# From MPEC 2021-BE3
293P/Spacewatch,e,9.0564,78.4108,41.0565,3.644181,0.1416786,0.41829496,6.0544,01/31.0/2021,2000,g 14.5,4.0
# From MPEC 2020-SI8
294P/LINEAR,e,18.2279,312.5918,235.4805,3.206180,0.1716810,0.59536066,73.4662,01/31.0/2021,2000,g 15.5,4.0
# From MPC 93589
295P/LINEAR,e,21.0733,7.4202,72.9216,5.306563,0.0806277,0.61605886,198.5815,01/31.0/2021,2000,g 12.0,4.0
# From MPEC 2020-SI8
296P/Garradd,e,25.2314,263.6363,350.1225,3.498225,0.1506373,0.47877998,20.3487,01/31.0/2021,2000,g 14.0,4.0
# From MPC102956
297P/Beshore,e,10.3286,97.6594,132.5012,3.442085,0.1543376,0.31918839,1.2553,01/31.0/2021,2000,g 15.0,4.0
# From MPC114609
298P/Christensen,e,7.8703,52.8226,100.6852,3.592386,0.1447537,0.38671711,21.2283,01/31.0/2021,2000,g 15.0,4.0
# From MPC101100
299P/Catalina-PANSTARRS,e,10.4758,271.6255,323.8992,4.384680,0.1073488,0.28165424,232.7165,01/31.0/2021,2000,g 11.5,4.0
# From MPC114609
300P/Catalina,e,5.6756,95.6633,222.8805,2.700042,0.2221510,0.69176700,182.3041,01/31.0/2021,2000,g 16.0,4.0
# From MPC 89014
301P/LINEAR-NEAT,e,10.3415,351.1770,193.7117,5.738474,0.0716984,0.58540330,168.2877,01/31.0/2021,2000,g 13.0,4.0
# From MPEC 2020-HN5
302P/Lemmon-PANSTARRS,e,6.0342,121.7551,208.2177,4.276659,0.1114415,0.23004274,193.2722,01/31.0/2021,2000,g 12.5,4.0
# From MPC 92278
303P/NEAT,e,7.0201,347.9704,356.8715,5.048156,0.0868970,0.51046521,199.7039,01/31.0/2021,2000,g 13.5,4.0
# From MPEC 2020-N08
304P/Ory,e,2.6067,58.9346,335.2310,3.150347,0.1762652,0.60048067,30.2457,01/31.0/2021,2000,g 16.5,4.0
# From MPC101100
305P/Skiff,e,11.6464,240.1223,147.2778,4.644371,0.0984722,0.69310108,223.4363,01/31.0/2021,2000,g 18.0,4.0
# From MPC 92278
306P/LINEAR,e,8.3108,341.3763,0.8299,3.122686,0.1786124,0.59328786,66.8190,01/31.0/2021,2000,g 19.0,4.0
# From MPC 92278
307P/LINEAR,e,4.4334,158.1447,222.1390,5.793577,0.0706779,0.67448260,157.8507,01/31.0/2021,2000,g 15.0,4.0
# From MPC109148
308P/Lagerkvist-Carsenty,e,4.8503,63.0919,333.5973,6.605357,0.0580577,0.36315872,121.7608,01/31.0/2021,2000,g 13.0,2.0
# From MPC 94284
309P/LINEAR,e,17.0232,10.1404,49.9670,4.371451,0.1078365,0.61760681,235.5618,01/31.0/2021,2000,g 15.0,4.0
# From MPC 98566
310P/Hill,e,13.1279,8.9252,31.8399,4.178103,0.1154079,0.42177978,244.9459,01/31.0/2021,2000,g 13.5,4.0
# From MPEC 2021-BE3
311P/PANSTARRS,e,4.9698,279.2278,144.5856,2.188800,0.3043653,0.11546095,35.1717,01/31.0/2021,2000,g 17.0,4.0
# From MPEC 2021-BE3
312P/NEAT,e,19.7684,144.6699,207.5334,3.466094,0.1527368,0.42780635,19.5504,01/31.0/2021,2000,g 16.0,4.0
# From MPEC 2021-BE3
313P/Gibbs,e,10.9831,105.9730,254.6596,3.161998,0.1752918,0.23494063,50.9470,01/31.0/2021,2000,g 15.0,4.0
# From MPC105243
314P/Montani,e,3.9795,267.6168,214.1678,7.271666,0.0502636,0.41605137,79.1998,01/31.0/2021,2000,g  9.5,4.0
# From MPC115888
315P/LONEOS,e,17.7755,68.9858,65.6776,4.939140,0.0897898,0.52180078,136.7532,01/31.0/2021,2000,g 11.0,4.0
# From MPC 92279
316P/LONEOS-Christensen,e,9.8566,246.6900,193.5361,4.357154,0.1083677,0.15823476,209.4524,01/31.0/2021,2000,g 13.5,4.0
# From MPEC 2020-C98
317P/WISE,e,11.9502,275.5170,334.9055,2.965496,0.1930004,0.57050386,24.4759,01/31.0/2021,2000,g 17.5,4.0
# From MPC102103
318P/McNaught-Hartley,e,17.8757,35.6085,313.1492,7.497527,0.0480095,0.67513316,92.4500,01/31.0/2021,2000,g  8.5,6.0
# From MPC 97499
319P/Catalina-McNaught,e,15.0951,111.3775,203.6400,3.567946,0.1462435,0.66659817,297.9310,01/31.0/2021,2000,g 15.0,4.0
# From MPC 96281
320P/McNaught,e,4.9089,295.9302,0.7761,3.094112,0.1810923,0.68576563,2.5096,01/31.0/2021,2000,g 20.5,4.0
# From MPC105243
321P/SOHO,e,20.0671,165.0294,172.7351,2.423308,0.2612709,0.98109225,0.0000,01/17.2801/2020,2000,g 20.0,4.0
# From MPC102103
322P/SOHO,e,11.4625,351.4881,56.9136,2.508075,0.2481380,0.97978859,0.0000,08/31.4553/2019,2000,g 19.0,4.0
# From MPEC 2016-Y36
323P/SOHO,e,5.3387,324.3751,353.0527,2.581971,0.2375621,0.98484268,0.0000,01/17.7618/2021,2000,g 20.0,4.0
# From MPC108598
324P/La Sagra,e,21.4105,270.6366,57.7374,3.097901,0.1807602,0.15475450,342.7803,01/31.0/2021,2000,g 13.0,4.0
# From MPC114609
325P/Yang-Gao,e,16.6964,257.5737,343.6874,3.523986,0.1489885,0.59360426,297.1083,01/31.0/2021,2000,g 14.0,4.0
# From MPC103849
326P/Hill,e,2.4708,99.8123,278.5857,4.063922,0.1203056,0.31754448,231.9966,01/31.0/2021,2000,g 13.5,4.0
# From MPC 97499
327P/Van Ness,e,36.2481,173.9783,185.0271,3.562534,0.1465769,0.56293971,275.0566,01/31.0/2021,2000,g 16.0,4.0
# From MPC109148
328P/LONEOS-Tucker,e,17.6711,341.6283,30.4812,4.195241,0.1147014,0.55192126,213.8296,01/31.0/2021,2000,g 14.5,4.0
# From MPC101101
329P/LINEAR-Catalina,e,21.6681,87.6799,343.5390,5.192111,0.0833083,0.67699133,157.3805,01/31.0/2021,2000,g 13.5,4.0
# From MPC105243
330P/Catalina,e,15.6941,293.0959,188.9824,6.630646,0.0577258,0.54842707,93.4172,01/31.0/2021,2000,g 12.0,4.0
# From MPEC 2021-BE3
331P/Gibbs,e,9.7390,216.7776,183.8104,3.003813,0.1893193,0.04081028,23.2978,01/31.0/2021,2000,g 12.0,4.0
# From MPEC 2016-K18
332P/Ikeya-Murakami,e,9.3799,3.7892,152.3513,3.088874,0.1815531,0.48945015,323.7914,01/31.0/2021,2000,g 18.0,4.0
# From MPEC 2016-EI8
332P-B/Ikeya-Murakami,e,9.3805,3.8028,152.3711,3.082329,0.1821317,0.48970701,359.9699,03/17.0/2016,2000,g 19.0,4.0
# From MPEC 2016-K18
332P-C/Ikeya-Murakami,e,9.3790,3.7897,152.3426,3.088840,0.1815561,0.48945559,323.8049,01/31.0/2021,2000,g 16.5,4.0
# From MPEC 2016-ED0
332P-D/Ikeya-Murakami,e,9.3761,3.7923,152.4393,3.081138,0.1822373,0.48977814,359.9486,03/17.0/2016,2000,g 19.0,4.0
# From MPEC 2016-ED0
332P-E/Ikeya-Murakami,e,9.3774,3.8228,152.2825,3.079877,0.1823493,0.48922008,359.9889,03/17.0/2016,2000,g 21.0,4.0
# From MPEC 2016-ED0
332P-F/Ikeya-Murakami,e,9.5293,3.4757,152.8203,3.163214,0.1751908,0.49918860,359.8501,03/17.0/2016,2000,g 21.0,4.0
# From MPEC 2016-ED0
332P-G/Ikeya-Murakami,e,9.2523,3.6955,154.4000,3.050519,0.1849880,0.49200362,359.9006,03/19.0/2016,2000,g 19.0,4.0
# From MPC100285
332P-H/Ikeya-Murakami,e,9.3795,3.7894,152.3433,3.089024,0.1815400,0.48949072,323.7431,01/31.0/2021,2000,g 19.0,4.0
# From MPEC 2016-ED0
332P-I/Ikeya-Murakami,e,9.3791,3.8048,152.3297,3.081767,0.1821815,0.48955490,359.9360,03/17.0/2016,2000,g 20.5,2.0
# From MPEC 2016-EI8
332P-J/Ikeya-Murakami,e,9.4296,3.6729,152.7712,3.115165,0.1792596,0.49429435,359.8613,03/17.0/2016,2000,g 20.5,2.0
# From MPEC 2020-L06
333P/LINEAR,e,131.9803,115.6256,26.0182,4.218955,0.1137357,0.73675121,200.9117,01/31.0/2021,2000,g 15.0,4.0
# From MPC115888
334P/NEAT,e,20.4484,90.6986,90.0144,6.838271,0.0551169,0.35228447,73.4872,01/31.0/2021,2000,g 10.5,4.0
# From MPC100285
335P/Gibbs,e,7.2930,330.8463,162.2484,3.578428,0.1456014,0.54561648,278.7322,01/31.0/2021,2000,g 17.0,4.0
# From MPC105244
336P/McNaught,e,17.8339,298.2274,308.7508,5.031576,0.0873269,0.44531162,127.3410,01/31.0/2021,2000,g 13.5,4.0
# From MPC115888
337P/WISE,e,15.3729,106.0709,160.9926,3.287436,0.1653553,0.49684311,274.6700,01/31.0/2021,2000,g 17.0,4.0
# From MPC104796
338P/McNaught,e,25.3760,9.7881,4.3970,3.897622,0.1280868,0.41128141,196.0153,01/31.0/2021,2000,g 12.0,4.0
# From MPC101101
339P/Gibbs,e,5.7345,172.7384,27.5210,3.696187,0.1386990,0.63567836,229.3333,01/31.0/2021,2000,g 17.0,4.0
# From MPC102957
340P/Boattini,e,2.0795,291.7257,35.8203,4.251375,0.1124372,0.28071643,172.3391,01/31.0/2021,2000,g 13.0,4.0
# From MPEC 2021-BE3
341P/Gibbs,e,3.7952,29.9859,312.1340,4.293888,0.1107715,0.41534416,189.2185,01/31.0/2021,2000,g 12.5,4.0
# From MPC101101
